APRIZESAT 2             
1 28366U 04025A   24362.47939217  .00000521  00000+0  17541-3 0  9993
2 28366  98.0717 189.0657 0107444  70.8450 290.4332 14.37612014 74518
SAUDICOMSAT 1           
1 28369U 04025D   24362.46477915  .00001434  00000+0  34473-3 0  9994
2 28369  98.5573 347.7525 0031645 225.8099 134.0497 14.54647061 86071
SAUDICOMSAT 2           
1 28370U 04025E   24362.49616481  .00001185  00000+0  31681-3 0  9993
2 28370  98.6483 349.0136 0057263  84.7761 275.9963 14.49279481 82349
APRIZESAT 1             
1 28372U 04025G   24362.44674234  .00001205  00000+0  31192-3 0  9990
2 28372  98.6116 348.0694 0044797 348.6543  11.3637 14.51170828 84047
NANOSAT-1               
1 28493U 04049B   24362.35635361  .00003678  00000+0  51710-3 0  9992
2 28493  98.1619 117.9846 0003542 202.9032 157.2021 14.77994406 76080
SAUDICOMSAT 7           
1 31119U 07012C   24362.41411271  .00002285  00000+0  42754-3 0  9994
2 31119  98.3044 317.4274 0058382  78.9564 281.8197 14.64775910943813
SAUDICOMSAT 6           
1 31121U 07012E   24362.40096346  .00001678  00000+0  33729-3 0  9995
2 31121  98.3362 311.8404 0072739 197.4366 162.4335 14.61337018941749
SAUDICOMSAT 5           
1 31124U 07012H   24362.43651055  .00002820  00000+0  50660-3 0  9998
2 31124  98.2752 318.3488 0049137  16.0834 344.1916 14.66713004944868
SAUDICOMSAT 3           
1 31125U 07012J   24362.46887480  .00003303  00000+0  56559-3 0  9995
2 31125  98.2419 319.0471 0039376 310.4052  49.3719 14.69011346945977
SAUDICOMSAT 4           
1 31127U 07012L   24362.42069554  .00001837  00000+0  35553-3 0  9998
2 31127  98.3249 315.9393 0065691 134.6449 226.0135 14.63215108942849
APRIZESAT 4             
1 35684U 09041D   24362.54230240  .00002410  00000+0  30330-3 0  9995
2 35684  98.2116  54.6147 0043200 258.9418 100.6934 14.82405904831819
APRIZESAT 3             
1 35686U 09041F   24362.29046181  .00004512  00000+0  41968-3 0  9992
2 35686  98.1337 122.4282 0066186  39.0832 321.5141 14.93203086836161
AISSAT 1                
1 36797U 10035C   24362.52965399  .00006768  00000+0  64787-3 0  9997
2 36797  98.1582 231.2438 0010782  37.8744 322.3231 14.93496509784006
S-NET D                 
1 43186U 18014G   24362.47188287  .00011080  00000+0  70767-3 0  9997
2 43186  97.5768 261.2450 0011566  69.5552 290.6918 15.08770024377609
S-NET B                 
1 43187U 18014H   24362.47546429  .00011253  00000+0  71878-3 0  9990
2 43187  97.5774 261.2110 0012199  65.5402 294.7098 15.08754683377600
S-NET A                 
1 43188U 18014J   24362.27379820  .00011209  00000+0  71576-3 0  9994
2 43188  97.5783 261.1427 0012144  66.6858 293.5647 15.08768955377578
S-NET C                 
1 43189U 18014K   24362.47753534  .00011423  00000+0  72935-3 0  9993
2 43189  97.5797 261.3288 0013641  59.3365 300.9206 15.08751593376153
SALSAT                  
1 46495U 20068K   24362.45593879  .00014646  00000+0  71083-3 0  9993
2 46495  97.8412 327.6107 0013420  18.8954 341.2774 15.18513633233587
OOV-CUBE (TUBSAT-30)    
1 60240U 24128F   24362.28431571  .00007242  00000+0  61187-3 0  9997
2 60240  61.9978 292.3108 0031291  13.3531 346.8379 14.98536226 25521
